CCSDS_OMM_VERS = 2.0
CREATION_DATE  = 
ORIGINATOR     = 

OBJECT_NAME    = SL-16 R/B
OBJECT_ID      = 1993-016B
CENTER_NAME    = EARTH
REF_FRAME      = TEME
TIME_SYSTEM    = UTC
MEAN_ELEMENT_THEORY = SGP/SGP4

EPOCH          = 2026-01-16T23:21:41.753088
MEAN_MOTION    = 14.15293371
ECCENTRICITY   = .00087968
INCLINATION    = 71.0088
RA_OF_ASC_NODE = 323.8023
ARG_OF_PERICENTER = 30.8803
MEAN_ANOMALY   = 329.2836

EPHEMERIS_TYPE = 0
CLASSIFICATION_TYPE = U
NORAD_CAT_ID   = 22566
ELEMENT_SET_NO = 999
REV_AT_EPOCH   = 69485
BSTAR          = -.15152399E-4
MEAN_MOTION_DOT = -.77E-6
MEAN_MOTION_DDOT = 0

CCSDS_OMM_VERS = 2.0
CREATION_DATE  = 
ORIGINATOR     = 

OBJECT_NAME    = COSMOS 2242
OBJECT_ID      = 1993-024A
CENTER_NAME    = EARTH
REF_FRAME      = TEME
TIME_SYSTEM    = UTC
MEAN_ELEMENT_THEORY = SGP/SGP4

EPOCH          = 2026-01-16T13:06:31.085568
MEAN_MOTION    = 14.96277765
ECCENTRICITY   = .00178068
INCLINATION    = 82.5210
RA_OF_ASC_NODE = 316.5754
ARG_OF_PERICENTER = 117.2665
MEAN_ANOMALY   = 243.0374

EPHEMERIS_TYPE = 0
CLASSIFICATION_TYPE = U
NORAD_CAT_ID   = 22626
ELEMENT_SET_NO = 999
REV_AT_EPOCH   = 77259
BSTAR          = .12635239E-3
MEAN_MOTION_DOT = .1457E-4
MEAN_MOTION_DDOT = 0

CCSDS_OMM_VERS = 2.0
CREATION_DATE  = 
ORIGINATOR     = 

OBJECT_NAME    = SL-16 R/B
OBJECT_ID      = 1993-059B
CENTER_NAME    = EARTH
REF_FRAME      = TEME
TIME_SYSTEM    = UTC
MEAN_ELEMENT_THEORY = SGP/SGP4

EPOCH          = 2026-01-16T17:46:38.311680
MEAN_MOTION    = 14.17221746
ECCENTRICITY   = .00194167
INCLINATION    = 70.9910
RA_OF_ASC_NODE = 120.6800
ARG_OF_PERICENTER = 287.1491
MEAN_ANOMALY   = 72.7507

EPHEMERIS_TYPE = 0
CLASSIFICATION_TYPE = U
NORAD_CAT_ID   = 22803
ELEMENT_SET_NO = 999
REV_AT_EPOCH   = 67217
BSTAR          = .12261588E-3
MEAN_MOTION_DOT = .2E-5
MEAN_MOTION_DDOT = 0

CCSDS_OMM_VERS = 2.0
CREATION_DATE  = 
ORIGINATOR     = 

OBJECT_NAME    = ARIANE 40 R/B
OBJECT_ID      = 1993-061H
CENTER_NAME    = EARTH
REF_FRAME      = TEME
TIME_SYSTEM    = UTC
MEAN_ELEMENT_THEORY = SGP/SGP4

EPOCH          = 2026-01-16T22:53:17.045664
MEAN_MOTION    = 14.32826529
ECCENTRICITY   = .00117792
INCLINATION    = 98.5022
RA_OF_ASC_NODE = 86.8344
ARG_OF_PERICENTER = 79.4603
MEAN_ANOMALY   = 280.7908

EPHEMERIS_TYPE = 0
CLASSIFICATION_TYPE = U
NORAD_CAT_ID   = 22830
ELEMENT_SET_NO = 999
REV_AT_EPOCH   = 68669
BSTAR          = .7841388E-4
MEAN_MOTION_DOT = .171E-5
MEAN_MOTION_DDOT = 0

CCSDS_OMM_VERS = 2.0
CREATION_DATE  = 
ORIGINATOR     = 

OBJECT_NAME    = COSMOS 2278
OBJECT_ID      = 1994-023A
CENTER_NAME    = EARTH
REF_FRAME      = TEME
TIME_SYSTEM    = UTC
MEAN_ELEMENT_THEORY = SGP/SGP4

EPOCH          = 2026-01-16T23:15:27.990144
MEAN_MOTION    = 14.14364989
ECCENTRICITY   = .00065876
INCLINATION    = 71.0547
RA_OF_ASC_NODE = 283.3060
ARG_OF_PERICENTER = 113.6684
MEAN_ANOMALY   = 246.5131

EPHEMERIS_TYPE = 0
CLASSIFICATION_TYPE = U
NORAD_CAT_ID   = 23087
ELEMENT_SET_NO = 999
REV_AT_EPOCH   = 63749
BSTAR          = .79165643E-4
MEAN_MOTION_DOT = .104E-5
MEAN_MOTION_DDOT = 0

CCSDS_OMM_VERS = 2.0
CREATION_DATE  = 
ORIGINATOR     = 

OBJECT_NAME    = SL-16 R/B
OBJECT_ID      = 1994-023B
CENTER_NAME    = EARTH
REF_FRAME      = TEME
TIME_SYSTEM    = UTC
MEAN_ELEMENT_THEORY = SGP/SGP4

EPOCH          = 2026-01-16T21:32:35.359008
MEAN_MOTION    = 14.15006319
ECCENTRICITY   = .00035028
INCLINATION    = 70.9996
RA_OF_ASC_NODE = 179.6534
ARG_OF_PERICENTER = 336.8563
MEAN_ANOMALY   = 23.2402

EPHEMERIS_TYPE = 0
CLASSIFICATION_TYPE = U
NORAD_CAT_ID   = 23088
ELEMENT_SET_NO = 999
REV_AT_EPOCH   = 63876
BSTAR          = .86899799E-4
MEAN_MOTION_DOT = .121E-5
MEAN_MOTION_DDOT = 0

CCSDS_OMM_VERS = 2.0
CREATION_DATE  = 
ORIGINATOR     = 

OBJECT_NAME    = SL-16 R/B
OBJECT_ID      = 1994-074B
CENTER_NAME    = EARTH
REF_FRAME      = TEME
TIME_SYSTEM    = UTC
MEAN_ELEMENT_THEORY = SGP/SGP4

EPOCH          = 2026-01-16T23:35:41.316576
MEAN_MOTION    = 14.79335256
ECCENTRICITY   = .00074378
INCLINATION    = 97.7169
RA_OF_ASC_NODE = 49.8813
ARG_OF_PERICENTER = 39.8162
MEAN_ANOMALY   = 21.4204

EPHEMERIS_TYPE = 0
CLASSIFICATION_TYPE = U
NORAD_CAT_ID   = 23343
ELEMENT_SET_NO = 999
REV_AT_EPOCH   = 67960
BSTAR          = .60208814E-4
MEAN_MOTION_DOT = .399E-5
MEAN_MOTION_DDOT = 0

CCSDS_OMM_VERS = 2.0
CREATION_DATE  = 
ORIGINATOR     = 

OBJECT_NAME    = SL-16 R/B
OBJECT_ID      = 1994-077B
CENTER_NAME    = EARTH
REF_FRAME      = TEME
TIME_SYSTEM    = UTC
MEAN_ELEMENT_THEORY = SGP/SGP4

EPOCH          = 2026-01-16T23:16:59.231136
MEAN_MOTION    = 14.15556250
ECCENTRICITY   = .00048041
INCLINATION    = 70.9836
RA_OF_ASC_NODE = 101.2999
ARG_OF_PERICENTER = 256.5579
MEAN_ANOMALY   = 103.5009

EPHEMERIS_TYPE = 0
CLASSIFICATION_TYPE = U
NORAD_CAT_ID   = 23405
ELEMENT_SET_NO = 999
REV_AT_EPOCH   = 60891
BSTAR          = .13349529E-3
MEAN_MOTION_DOT = .213E-5
MEAN_MOTION_DDOT = 0

CCSDS_OMM_VERS = 2.0
CREATION_DATE  = 
ORIGINATOR     = 

OBJECT_NAME    = ARIANE 40+ R/B
OBJECT_ID      = 1995-021B
CENTER_NAME    = EARTH
REF_FRAME      = TEME
TIME_SYSTEM    = UTC
MEAN_ELEMENT_THEORY = SGP/SGP4

EPOCH          = 2026-01-16T23:51:20.317824
MEAN_MOTION    = 14.39725607
ECCENTRICITY   = .0005716
INCLINATION    = 98.4600
RA_OF_ASC_NODE = 89.1499
ARG_OF_PERICENTER = 301.0952
MEAN_ANOMALY   = 232.0907

EPHEMERIS_TYPE = 0
CLASSIFICATION_TYPE = U
NORAD_CAT_ID   = 23561
ELEMENT_SET_NO = 999
REV_AT_EPOCH   = 61180
BSTAR          = .9089888E-4
MEAN_MOTION_DOT = .241E-5
MEAN_MOTION_DDOT = 0

CCSDS_OMM_VERS = 2.0
CREATION_DATE  = 
ORIGINATOR     = 

OBJECT_NAME    = SL-16 R/B
OBJECT_ID      = 1995-058B
CENTER_NAME    = EARTH
REF_FRAME      = TEME
TIME_SYSTEM    = UTC
MEAN_ELEMENT_THEORY = SGP/SGP4

EPOCH          = 2026-01-16T23:23:20.904000
MEAN_MOTION    = 14.15490113
ECCENTRICITY   = .0013569
INCLINATION    = 71.0224
RA_OF_ASC_NODE = 288.8303
ARG_OF_PERICENTER = 208.5259
MEAN_ANOMALY   = 151.5123

EPHEMERIS_TYPE = 0
CLASSIFICATION_TYPE = U
NORAD_CAT_ID   = 23705
ELEMENT_SET_NO = 999
REV_AT_EPOCH   = 56053
BSTAR          = -.29795939E-4
MEAN_MOTION_DOT = -.106E-5
MEAN_MOTION_DDOT = 0

CCSDS_OMM_VERS = 2.0
CREATION_DATE  = 
ORIGINATOR     = 

OBJECT_NAME    = SL-16 R/B
OBJECT_ID      = 1996-051B
CENTER_NAME    = EARTH
REF_FRAME      = TEME
TIME_SYSTEM    = UTC
MEAN_ELEMENT_THEORY = SGP/SGP4

EPOCH          = 2026-01-16T23:17:29.149728
MEAN_MOTION    = 14.12401170
ECCENTRICITY   = .0018918
INCLINATION    = 70.7591
RA_OF_ASC_NODE = 284.7121
ARG_OF_PERICENTER = 217.9245
MEAN_ANOMALY   = 142.0544

EPHEMERIS_TYPE = 0
CLASSIFICATION_TYPE = U
NORAD_CAT_ID   = 24298
ELEMENT_SET_NO = 999
REV_AT_EPOCH   = 51434
BSTAR          = .40190363E-4
MEAN_MOTION_DOT = .25E-6
MEAN_MOTION_DDOT = 0

CCSDS_OMM_VERS = 2.0
CREATION_DATE  = 
ORIGINATOR     = 

OBJECT_NAME    = ORBVIEW 2 (SEASTAR)
OBJECT_ID      = 1997-037A
CENTER_NAME    = EARTH
REF_FRAME      = TEME
TIME_SYSTEM    = UTC
MEAN_ELEMENT_THEORY = SGP/SGP4

EPOCH          = 2026-01-16T23:26:50.894880
MEAN_MOTION    = 14.35446731
ECCENTRICITY   = .00019334
INCLINATION    = 98.8483
RA_OF_ASC_NODE = 179.9444
ARG_OF_PERICENTER = 187.3732
MEAN_ANOMALY   = 172.7425

EPHEMERIS_TYPE = 0
CLASSIFICATION_TYPE = U
NORAD_CAT_ID   = 24883
ELEMENT_SET_NO = 999
REV_AT_EPOCH   = 50105
BSTAR          = .10134298E-3
MEAN_MOTION_DOT = .245E-5
MEAN_MOTION_DDOT = 0

