SL-16 R/B               
1 22566U 93016B   26016.97339992 -.00000077  00000+0 -15152-4 0  9999
2 22566  71.0088 323.8023 0008796  30.8803 329.2836 14.15293371694851
COSMOS 2242             
1 22626U 93024A   26016.54619312  .00001457  00000+0  12635-3 0  9998
2 22626  82.5210 316.5754 0017806 117.2665 243.0374 14.96277765772596
SL-16 R/B               
1 22803U 93059B   26016.74072120  .00000200  00000+0  12262-3 0  9996
2 22803  70.9910 120.6800 0019416 287.1491  72.7507 14.17221746672179
ARIANE 40 R/B           
1 22830U 93061H   26016.95366951  .00000171  00000+0  78414-4 0  9999
2 22830  98.5022  86.8344 0011779  79.4603 280.7908 14.32826529686691
COSMOS 2278             
1 23087U 94023A   26016.96907396  .00000104  00000+0  79166-4 0  9999
2 23087  71.0547 283.3060 0006587 113.6684 246.5131 14.14364989637493
SL-16 R/B               
1 23088U 94023B   26016.89763147  .00000121  00000+0  86900-4 0  9999
2 23088  70.9996 179.6534 0003502 336.8563  23.2402 14.15006319638765
SL-16 R/B               
1 23343U 94074B   26016.98311709  .00000399  00000+0  60209-4 0  9993
2 23343  97.7169  49.8813 0007437  39.8162  21.4204 14.79335256679605
SL-16 R/B               
1 23405U 94077B   26016.97012999  .00000213  00000+0  13350-3 0  9992
2 23405  70.9836 101.2999 0004804 256.5579 103.5009 14.15556250608911
ARIANE 40+ R/B          
1 23561U 95021B   26016.99398516  .00000241  00000+0  90899-4 0  9994
2 23561  98.4600  89.1499 0005716 301.0952 232.0907 14.39725607611808
SL-16 R/B               
1 23705U 95058B   26016.97454750 -.00000106  00000+0 -29796-4 0  9995
2 23705  71.0224 288.8303 0013569 208.5259 151.5123 14.15490113560538
SL-16 R/B               
1 24298U 96051B   26016.97047627  .00000025  00000+0  40190-4 0  9997
2 24298  70.7591 284.7121 0018918 217.9245 142.0544 14.12401170514346
ORBVIEW 2 (SEASTAR)     
1 24883U 97037A   26016.97697795  .00000245  00000+0  10134-3 0  9997
2 24883  98.8483 179.9444 0001933 187.3732 172.7425 14.35446731501059
